[{"OBJECT_NAME":"HELIOS 1B","OBJECT_ID":"1999-064A","EPOCH":"2026-03-07T03:47:31.827264","MEAN_MOTION":14.87686022,"ECCENTRICITY":0.0002474,"INCLINATION":98.1696,"RA_OF_ASC_NODE":328.3272,"ARG_OF_PERICENTER":78.3985,"MEAN_ANOMALY":281.7508,"EPHEMERIS_TYPE":0,"CLASSIFICATION_TYPE":"U","NORAD_CAT_ID":25977,"ELEMENT_SET_NO":999,"REV_AT_EPOCH":68488,"BSTAR":0.000243,"MEAN_MOTION_DOT":2.155e-5,"MEAN_MOTION_DDOT":0},{"OBJECT_NAME":"TERRA","OBJECT_ID":"1999-068A","EPOCH":"2026-03-07T04:22:44.122368","MEAN_MOTION":14.61011101,"ECCENTRICITY":0.0002549,"INCLINATION":97.9598,"RA_OF_ASC_NODE":119.7129,"ARG_OF_PERICENTER":157.7007,"MEAN_ANOMALY":269.8251,"EPHEMERIS_TYPE":0,"CLASSIFICATION_TYPE":"U","NORAD_CAT_ID":25994,"ELEMENT_SET_NO":999,"REV_AT_EPOCH":39471,"BSTAR":0.00011129,"MEAN_MOTION_DOT":5.02e-6,"MEAN_MOTION_DDOT":0},{"OBJECT_NAME":"SL-16 R/B","OBJECT_ID":"2000-006B","EPOCH":"2026-03-07T04:28:26.596416","MEAN_MOTION":14.1582566,"ECCENTRICITY":0.0016954,"INCLINATION":71.0011,"RA_OF_ASC_NODE":103.1015,"ARG_OF_PERICENTER":193.7432,"MEAN_ANOMALY":166.3232,"EPHEMERIS_TYPE":0,"CLASSIFICATION_TYPE":"U","NORAD_CAT_ID":26070,"ELEMENT_SET_NO":999,"REV_AT_EPOCH":34820,"BSTAR":3.305e-5,"MEAN_MOTION_DOT":1.7e-7,"MEAN_MOTION_DDOT":0},{"OBJECT_NAME":"TITAN 4B R/B","OBJECT_ID":"2000-047B","EPOCH":"2026-03-07T04:17:21.999840","MEAN_MOTION":15.09530446,"ECCENTRICITY":0.0038389,"INCLINATION":67.9896,"RA_OF_ASC_NODE":47.5704,"ARG_OF_PERICENTER":38.3626,"MEAN_ANOMALY":322.0242,"EPHEMERIS_TYPE":0,"CLASSIFICATION_TYPE":"U","NORAD_CAT_ID":26474,"ELEMENT_SET_NO":999,"REV_AT_EPOCH":39253,"BSTAR":0.00032911,"MEAN_MOTION_DOT":5.25e-5,"MEAN_MOTION_DDOT":0},{"OBJECT_NAME":"ENVISAT","OBJECT_ID":"2002-009A","EPOCH":"2026-03-06T23:31:07.570272","MEAN_MOTION":14.39035629,"ECCENTRICITY":0.000133,"INCLINATION":98.3726,"RA_OF_ASC_NODE":19.6419,"ARG_OF_PERICENTER":84.0199,"MEAN_ANOMALY":29.4965,"EPHEMERIS_TYPE":0,"CLASSIFICATION_TYPE":"U","NORAD_CAT_ID":27386,"ELEMENT_SET_NO":999,"REV_AT_EPOCH":25878,"BSTAR":6.7966e-5,"MEAN_MOTION_DOT":1.67e-6,"MEAN_MOTION_DDOT":0},{"OBJECT_NAME":"IDEFIX & ARIANE 42P R/B","OBJECT_ID":"2002-021B","EPOCH":"2026-03-07T02:50:45.615264","MEAN_MOTION":14.31023761,"ECCENTRICITY":0.0011422,"INCLINATION":98.5867,"RA_OF_ASC_NODE":4.7556,"ARG_OF_PERICENTER":189.8444,"MEAN_ANOMALY":170.2516,"EPHEMERIS_TYPE":0,"CLASSIFICATION_TYPE":"U","NORAD_CAT_ID":27422,"ELEMENT_SET_NO":999,"REV_AT_EPOCH":24365,"BSTAR":0.0001519,"MEAN_MOTION_DOT":3.56e-6,"MEAN_MOTION_DDOT":0},{"OBJECT_NAME":"AQUA","OBJECT_ID":"2002-022A","EPOCH":"2026-03-07T05:16:53.076000","MEAN_MOTION":14.61969233,"ECCENTRICITY":5.82e-5,"INCLINATION":98.4172,"RA_OF_ASC_NODE":33.54,"ARG_OF_PERICENTER":69.71,"MEAN_ANOMALY":348.1417,"EPHEMERIS_TYPE":0,"CLASSIFICATION_TYPE":"U","NORAD_CAT_ID":27424,"ELEMENT_SET_NO":999,"REV_AT_EPOCH":26837,"BSTAR":0.00027967,"MEAN_MOTION_DOT":1.352e-5,"MEAN_MOTION_DDOT":0},{"OBJECT_NAME":"CZ-4B R/B","OBJECT_ID":"2002-024C","EPOCH":"2026-03-07T04:10:40.442016","MEAN_MOTION":14.14547182,"ECCENTRICITY":0.0050603,"INCLINATION":98.8843,"RA_OF_ASC_NODE":119.5933,"ARG_OF_PERICENTER":31.3095,"MEAN_ANOMALY":37.4414,"EPHEMERIS_TYPE":0,"CLASSIFICATION_TYPE":"U","NORAD_CAT_ID":27432,"ELEMENT_SET_NO":999,"REV_AT_EPOCH":22888,"BSTAR":4.7626e-5,"MEAN_MOTION_DOT":4.8e-7,"MEAN_MOTION_DDOT":0},{"OBJECT_NAME":"MIDORI II (ADEOS-II)","OBJECT_ID":"2002-056A","EPOCH":"2026-03-06T20:43:26.839776","MEAN_MOTION":14.29282591,"ECCENTRICITY":0.0001703,"INCLINATION":98.7766,"RA_OF_ASC_NODE":24.3216,"ARG_OF_PERICENTER":46.7218,"MEAN_ANOMALY":313.4105,"EPHEMERIS_TYPE":0,"CLASSIFICATION_TYPE":"U","NORAD_CAT_ID":27597,"ELEMENT_SET_NO":999,"REV_AT_EPOCH":20989,"BSTAR":0.00019241,"MEAN_MOTION_DOT":4.44e-6,"MEAN_MOTION_DDOT":0},{"OBJECT_NAME":"H-2A R/B","OBJECT_ID":"2002-056E","EPOCH":"2026-03-07T02:46:16.399776","MEAN_MOTION":14.33758516,"ECCENTRICITY":0.0070349,"INCLINATION":98.3199,"RA_OF_ASC_NODE":26.5791,"ARG_OF_PERICENTER":168.3094,"MEAN_ANOMALY":202.5409,"EPHEMERIS_TYPE":0,"CLASSIFICATION_TYPE":"U","NORAD_CAT_ID":27601,"ELEMENT_SET_NO":999,"REV_AT_EPOCH":21374,"BSTAR":0.00012834,"MEAN_MOTION_DOT":3.25e-6,"MEAN_MOTION_DDOT":0},{"OBJECT_NAME":"CZ-4B R/B","OBJECT_ID":"2003-049C","EPOCH":"2026-03-06T23:26:21.988896","MEAN_MOTION":14.55016978,"ECCENTRICITY":0.0047155,"INCLINATION":98.6877,"RA_OF_ASC_NODE":60.775,"ARG_OF_PERICENTER":239.3596,"MEAN_ANOMALY":120.2947,"EPHEMERIS_TYPE":0,"CLASSIFICATION_TYPE":"U","NORAD_CAT_ID":28059,"ELEMENT_SET_NO":999,"REV_AT_EPOCH":18620,"BSTAR":0.0001234,"MEAN_MOTION_DOT":4.87e-6,"MEAN_MOTION_DDOT":0},{"OBJECT_NAME":"CZ-2C R/B","OBJECT_ID":"2004-012C","EPOCH":"2026-03-07T04:16:52.135680","MEAN_MOTION":15.64142831,"ECCENTRICITY":0.0013123,"INCLINATION":97.7237,"RA_OF_ASC_NODE":131.2335,"ARG_OF_PERICENTER":319.4511,"MEAN_ANOMALY":40.5768,"EPHEMERIS_TYPE":0,"CLASSIFICATION_TYPE":"U","NORAD_CAT_ID":28222,"ELEMENT_SET_NO":999,"REV_AT_EPOCH":20388,"BSTAR":0.00062048,"MEAN_MOTION_DOT":0.00059268,"MEAN_MOTION_DDOT":0},{"OBJECT_NAME":"SL-16 R/B","OBJECT_ID":"2004-021B","EPOCH":"2026-03-06T21:52:21.512640","MEAN_MOTION":14.14598869,"ECCENTRICITY":0.0003868,"INCLINATION":70.9993,"RA_OF_ASC_NODE":238.3232,"ARG_OF_PERICENTER":14.1302,"MEAN_ANOMALY":345.9928,"EPHEMERIS_TYPE":0,"CLASSIFICATION_TYPE":"U","NORAD_CAT_ID":28353,"ELEMENT_SET_NO":999,"REV_AT_EPOCH":12244,"BSTAR":-8.7268e-5,"MEAN_MOTION_DOT":-2.15e-6,"MEAN_MOTION_DDOT":0},{"OBJECT_NAME":"CZ-4B R/B","OBJECT_ID":"2004-035C","EPOCH":"2026-03-07T02:17:05.229888","MEAN_MOTION":15.29004711,"ECCENTRICITY":0.0031247,"INCLINATION":97.3499,"RA_OF_ASC_NODE":100.3684,"ARG_OF_PERICENTER":341.0439,"MEAN_ANOMALY":18.9635,"EPHEMERIS_TYPE":0,"CLASSIFICATION_TYPE":"U","NORAD_CAT_ID":28415,"ELEMENT_SET_NO":999,"REV_AT_EPOCH":17951,"BSTAR":0.00034183,"MEAN_MOTION_DOT":9.695e-5,"MEAN_MOTION_DDOT":0},{"OBJECT_NAME":"CZ-2C R/B","OBJECT_ID":"2004-046B","EPOCH":"2026-03-07T04:07:10.431264","MEAN_MOTION":14.26990887,"ECCENTRICITY":0.0139746,"INCLINATION":98.1985,"RA_OF_ASC_NODE":341.3123,"ARG_OF_PERICENTER":161.8592,"MEAN_ANOMALY":198.7649,"EPHEMERIS_TYPE":0,"CLASSIFICATION_TYPE":"U","NORAD_CAT_ID":28480,"ELEMENT_SET_NO":999,"REV_AT_EPOCH":10814,"BSTAR":6.511e-5,"MEAN_MOTION_DOT":1.35e-6,"MEAN_MOTION_DDOT":0},{"OBJECT_NAME":"ARIANE 5 R/B","OBJECT_ID":"2004-049H","EPOCH":"2026-03-07T01:44:38.679360","MEAN_MOTION":14.85259577,"ECCENTRICITY":0.008412,"INCLINATION":98.2621,"RA_OF_ASC_NODE":234.4317,"ARG_OF_PERICENTER":0.4268,"MEAN_ANOMALY":359.7003,"EPHEMERIS_TYPE":0,"CLASSIFICATION_TYPE":"U","NORAD_CAT_ID":28499,"ELEMENT_SET_NO":999,"REV_AT_EPOCH":14540,"BSTAR":0.00010879,"MEAN_MOTION_DOT":9.29e-6,"MEAN_MOTION_DDOT":0},{"OBJECT_NAME":"CZ-2D R/B","OBJECT_ID":"2005-024B","EPOCH":"2026-03-07T00:22:02.616384","MEAN_MOTION":15.59849903,"ECCENTRICITY":0.000629,"INCLINATION":97.3597,"RA_OF_ASC_NODE":81.0635,"ARG_OF_PERICENTER":53.4811,"MEAN_ANOMALY":306.7024,"EPHEMERIS_TYPE":0,"CLASSIFICATION_TYPE":"U","NORAD_CAT_ID":28738,"ELEMENT_SET_NO":999,"REV_AT_EPOCH":13936,"BSTAR":0.00060724,"MEAN_MOTION_DOT":0.00048913,"MEAN_MOTION_DDOT":0}]
