HELIOS 1B               
1 25977U 99064A   26066.15800726  .00002155  00000+0  24300-3 0  9991
2 25977  98.1696 328.3272 0002474  78.3985 281.7508 14.87686022684884
TERRA                   
1 25994U 99068A   26066.18245512  .00000502  00000+0  11129-3 0  9992
2 25994  97.9598 119.7129 0002549 157.7007 269.8251 14.61011101394718
SL-16 R/B               
1 26070U 00006B   26066.18641894  .00000017  00000+0  33050-4 0  9994
2 26070  71.0011 103.1015 0016954 193.7432 166.3232 14.15825660348200
TITAN 4B R/B            
1 26474U 00047B   26066.17872685  .00005250  00000+0  32911-3 0  9998
2 26474  67.9896  47.5704 0038389  38.3626 322.0242 15.09530446392530
ENVISAT                 
1 27386U 02009A   26065.97994873  .00000167  00000+0  67966-4 0  9993
2 27386  98.3726  19.6419 0001330  84.0199  29.4965 14.39035629258788
IDEFIX & ARIANE 42P R/B 
1 27422U 02021B   26066.11858351  .00000356  00000+0  15190-3 0  9996
2 27422  98.5867   4.7556 0011422 189.8444 170.2516 14.31023761243657
AQUA                    
1 27424U 02022A   26066.22005875  .00001352  00000+0  27967-3 0  9998
2 27424  98.4172  33.5400 0000582  69.7100 348.1417 14.61969233268373
CZ-4B R/B               
1 27432U 02024C   26066.17407919  .00000048  00000+0  47626-4 0  9994
2 27432  98.8843 119.5933 0050603  31.3095  37.4414 14.14547182228884
MIDORI II (ADEOS-II)    
1 27597U 02056A   26065.86350509  .00000444  00000+0  19241-3 0  9999
2 27597  98.7766  24.3216 0001703  46.7218 313.4105 14.29282591209890
H-2A R/B                
1 27601U 02056E   26066.11546759  .00000325  00000+0  12834-3 0  9997
2 27601  98.3199  26.5791 0070349 168.3094 202.5409 14.33758516213743
CZ-4B R/B               
1 28059U 03049C   26065.97664339  .00000487  00000+0  12340-3 0  9997
2 28059  98.6877  60.7750 0047155 239.3596 120.2947 14.55016978186203
CZ-2C R/B               
1 28222U 04012C   26066.17838120  .00059268  00000+0  62048-3 0  9995
2 28222  97.7237 131.2335 0013123 319.4511  40.5768 15.64142831203881
SL-16 R/B               
1 28353U 04021B   26065.91136010 -.00000215  00000+0 -87268-4 0  9992
2 28353  70.9993 238.3232 0003868  14.1302 345.9928 14.14598869122447
CZ-4B R/B               
1 28415U 04035C   26066.09519942  .00009695  00000+0  34183-3 0  9991
2 28415  97.3499 100.3684 0031247 341.0439  18.9635 15.29004711179511
CZ-2C R/B               
1 28480U 04046B   26066.17164851  .00000135  00000+0  65110-4 0  9994
2 28480  98.1985 341.3123 0139746 161.8592 198.7649 14.26990887108145
ARIANE 5 R/B            
1 28499U 04049H   26066.07266990  .00000929  00000+0  10879-3 0  9995
2 28499  98.2621 234.4317 0084120   0.4268 359.7003 14.85259577145405
CZ-2D R/B               
1 28738U 05024B   26066.01530806  .00048913  00000+0  60724-3 0  9998
2 28738  97.3597  81.0635 0006290  53.4811 306.7024 15.59849903139369
